NORAD_CAT_ID,OBJECT_NAME,OBJECT_TYPE,EPOCH,MEAN_MOTION,ECCENTRICITY,INCLINATION,RA_OF_ASC_NODE,ARG_OF_PERICENTER,MEAN_ANOMALY,BSTAR,MEAN_MOTION_DOT,MEAN_MOTION_DDOT,TLE_LINE0,TLE_LINE1,TLE_LINE2,SEMIMAJOR_AXIS,PERIOD,APOGEE,PERIGEE,DECAYED
52869.0,STARLINK-4266,PAYLOAD,2023-07-17 19:04:54,15.08830305,0.0001318,53.2182,30.1911,92.111,268.0033,4.1122e-05,3.66e-06,0.0,0 STARLINK-4266,1 52869U 22062AR  23198.79507318  .00000366  00000-0  41122-4 0  9994,2 52869  53.2182  30.1911 0001318  92.1110 268.0033 15.08830305 60736,6917.91,95.438,540.687,538.863,0.0
52869.0,STARLINK-4266,PAYLOAD,2023-07-17 22:15:40,15.08838258,0.0001057,53.2183,29.5931,101.5635,258.5476,6.629e-05,7.67e-06,0.0,0 STARLINK-4266,1 52869U 22062AR  23198.92754993  .00000767  00000-0  66290-4 0  9990,2 52869  53.2183  29.5931 0001057 101.5635 258.5476 15.08838258 60750,6917.886,95.438,540.482,539.019,0.0
52869.0,STARLINK-4266,PAYLOAD,2023-07-18 22:06:26,15.08858101,0.0001032,53.2168,25.1336,87.6414,272.4696,0.00047188,7.234e-05,0.0,0 STARLINK-4266,1 52869U 22062AR  23199.92114221  .00007234  00000-0  47188-3 0  9995,2 52869  53.2168  25.1336 0001032  87.6414 272.4696 15.08858101 60901,6917.825,95.436,540.404,538.976,0.0
52869.0,STARLINK-4266,PAYLOAD,2023-07-19 17:11:04,15.0884115,9.37e-05,53.2171,21.5652,96.2877,263.8222,5.0726e-05,5.2e-06,0.0,0 STARLINK-4266,1 52869U 22062AR  23200.71602775  .00000520  00000-0  50726-4 0  9995,2 52869  53.2171  21.5652 0000937  96.2877 263.8222 15.08841150 61027,6917.877,95.437,540.39,539.094,0.0
52869.0,STARLINK-4266,PAYLOAD,2023-07-20 23:23:23,15.08857522,0.0001015,53.218,15.9155,109.7638,250.3464,0.00055408,8.545e-05,0.0,0 STARLINK-4266,1 52869U 22062AR  23201.97458316  .00008545  00000-0  55408-3 0  9990,2 52869  53.2180  15.9155 0001015 109.7638 250.3464 15.08857522 61215,6917.827,95.436,540.394,538.99,0.0
52869.0,STARLINK-4266,PAYLOAD,2023-07-21 12:06:29,15.08846639,0.0001424,53.2179,13.5362,88.8011,271.3145,0.00024858,3.671e-05,0.0,0 STARLINK-4266,1 52869U 22062AR  23202.50450677  .00003671  00000-0  24858-3 0  9992,2 52869  53.2179  13.5362 0001424  88.8011 271.3145 15.08846639 61297,6917.86,95.437,540.71,538.74,0.0
52869.0,STARLINK-4266,PAYLOAD,2023-07-23 22:55:45,15.088447,7.56e-05,53.2176,2.5334,171.9144,188.186,0.00034855,5.265e-05,0.0,0 STARLINK-4266,1 52869U 22062AR  23204.95538417  .00005265  00000-0  34855-3 0  9991,2 52869  53.2176   2.5334 0000756 171.9144 188.1860 15.08844700 61172,6917.866,95.437,540.254,539.208,0.0
52869.0,STARLINK-4266,PAYLOAD,2023-07-25 13:05:01,15.08836831,0.0001686,53.2144,355.3986,69.1783,290.939,-2.11e-05,-6.24e-06,0.0,0 STARLINK-4266,1 52869U 22062AR  23206.54515452 -.00000624  00000-0 -21100-4 0  9998,2 52869  53.2144 355.3986 0001686  69.1783 290.9390 15.08836831 61412,6917.89,95.438,540.921,538.589,0.0
52869.0,STARLINK-4266,PAYLOAD,2023-07-25 19:26:33,15.08840956,0.0001335,53.2153,354.21,57.6155,302.4966,0.00015155,2.125e-05,0.0,0 STARLINK-4266,1 52869U 22062AR  23206.81011261  .00002125  00000-0  15155-3 0  9995,2 52869  53.2153 354.2100 0001335  57.6155 302.4966 15.08840956 61459,6917.877,95.437,540.666,538.819,0.0
52869.0,STARLINK-4266,PAYLOAD,2023-07-26 14:31:11,15.08852356,0.0001009,53.2171,350.6406,68.203,291.9069,0.00062343,9.651e-05,0.0,0 STARLINK-4266,1 52869U 22062AR  23207.60499148  .00009651  00000-0  62343-3 0  9999,2 52869  53.2171 350.6406 0001009  68.2030 291.9069 15.08852356 62067,6917.843,95.437,540.406,539.01,0.0
52869.0,STARLINK-4266,PAYLOAD,2023-07-27 15:57:21,15.08842355,9.64e-05,53.2175,345.8821,78.2182,281.8918,0.00016175,2.288e-05,0.0,0 STARLINK-4266,1 52869U 22062AR  23208.66483291  .00002288  00000-0  16175-3 0  9999,2 52869  53.2175 345.8821 0000964  78.2182 281.8918 15.08842355 62223,6917.873,95.437,540.405,539.071,0.0
52869.0,STARLINK-4266,PAYLOAD,2023-07-28 09:26:36,15.08835774,8.89e-05,53.217,342.6114,79.9139,280.1954,0.00011442,1.534e-05,0.0,0 STARLINK-4266,1 52869U 22062AR  23209.39347657  .00001534  00000-0  11442-3 0  9990,2 52869  53.2170 342.6114 0000889  79.9139 280.1954 15.08835774 62335,6917.893,95.438,540.373,539.143,0.0
52869.0,STARLINK-4266,PAYLOAD,2023-07-29 17:14:18,15.08846182,9.63e-05,53.2165,336.6651,85.8636,274.2466,0.00025214,3.728e-05,0.0,0 STARLINK-4266,1 52869U 22062AR  23210.71827298  .00003728  00000-0  25214-3 0  9991,2 52869  53.2165 336.6651 0000963  85.8636 274.2466 15.08846182 62538,6917.861,95.437,540.393,539.06,0.0
52869.0,STARLINK-4266,PAYLOAD,2023-07-30 07:32:47,15.08839658,0.0001189,53.2157,333.9889,89.0622,271.0506,3.4022e-06,-2.34e-06,0.0,0 STARLINK-4266,1 52869U 22062AR  23211.31443551 -.00000234  00000-0  34022-5 0  9993,2 52869  53.2157 333.9889 0001189  89.0622 271.0506 15.08839658 62624,6917.881,95.438,540.569,538.924,0.0
52869.0,STARLINK-4266,PAYLOAD,2023-07-31 15:20:29,15.0884879,9.12e-05,53.2176,328.0415,86.8852,273.2244,0.00018827,2.711e-05,0.0,0 STARLINK-4266,1 52869U 22062AR  23212.63923266  .00002711  00000-0  18827-3 0  9999,2 52869  53.2176 328.0415 0000912  86.8852 273.2244 15.08848790 62820,6917.854,95.437,540.349,539.088,0.0
52869.0,STARLINK-4266,PAYLOAD,2023-08-01 16:46:40,15.08846274,0.0001078,53.2168,323.2839,78.3271,281.7842,0.00026368,3.912e-05,0.0,0 STARLINK-4266,1 52869U 22062AR  23213.69907538  .00003912  00000-0  26368-3 0  9993,2 52869  53.2168 323.2839 0001078  78.3271 281.7842 15.08846274 62983,6917.861,95.437,540.472,538.98,0.0
52869.0,STARLINK-4266,PAYLOAD,2023-08-02 07:05:08,15.088403,0.0001137,53.2162,320.6072,79.8105,280.3015,0.00014511,2.022e-05,0.0,0 STARLINK-4266,1 52869U 22062AR  23214.29523835  .00002022  00000-0  14511-3 0  9992,2 52869  53.2162 320.6072 0001137  79.8105 280.3015 15.08840300 63077,6917.879,95.438,540.531,538.958,0.0
52869.0,STARLINK-4266,PAYLOAD,2023-08-02 15:02:03,15.08850361,9.96e-05,53.2165,319.12,102.3517,257.7587,0.00025961,3.847e-05,0.0,0 STARLINK-4266,1 52869U 22062AR  23214.62643340  .00003847  00000-0  25961-3 0  9990,2 52869  53.2165 319.1200 0000996 102.3517 257.7587 15.08850361 63123,6917.849,95.437,540.403,539.025,0.0
52869.0,STARLINK-4266,PAYLOAD,2023-08-03 10:06:41,15.08845369,0.0001175,53.217,315.5518,102.9988,257.1135,0.0001688,2.4e-05,0.0,0 STARLINK-4266,1 52869U 22062AR  23215.42131505  .00002400  00000-0  16880-3 0  9998,2 52869  53.2170 315.5518 0001175 102.9988 257.1135 15.08845369 63247,6917.864,95.437,540.542,538.916,0.0
52869.0,STARLINK-4266,PAYLOAD,2023-08-04 09:57:28,15.08838442,0.0001024,53.2171,311.0917,90.6501,269.4608,7.1664e-06,-1.74e-06,0.0,0 STARLINK-4266,1 52869U 22062AR  23216.41491842 -.00000174  00000-0  71664-5 0  9991,2 52869  53.2171 311.0917 0001024  90.6501 269.4608 15.08838442 63390,6917.885,95.438,540.459,539.042,0.0
52869.0,STARLINK-4266,PAYLOAD,2023-08-04 17:54:24,15.08845816,0.0001078,53.217,309.604,94.2486,265.863,0.00011338,1.517e-05,0.0,0 STARLINK-4266,1 52869U 22062AR  23216.74611430  .00001517  00000-0  11338-3 0  9995,2 52869  53.2170 309.6040 0001078  94.2486 265.8630 15.08845816 63444,6917.863,95.437,540.473,538.982,0.0
52869.0,STARLINK-4266,PAYLOAD,2023-08-05 09:48:15,15.0884215,0.0001506,53.2162,306.6307,70.8937,289.2218,9.4995e-05,1.224e-05,0.0,0 STARLINK-4266,1 52869U 22062AR  23217.40851845  .00001224  00000-0  94995-4 0  9991,2 52869  53.2162 306.6307 0001506  70.8937 289.2218 15.08842150 63546,6917.874,95.437,540.781,538.697,0.0
52869.0,STARLINK-4266,PAYLOAD,2023-08-05 14:34:24,15.08853241,0.0001202,53.2171,305.736,103.2817,256.831,0.00031722,4.766e-05,0.0,0 STARLINK-4266,1 52869U 22062AR  23217.60723138  .00004766  00000-0  31722-3 0  9998,2 52869  53.2171 305.7360 0001202 103.2817 256.8310 15.08853241 63575,6917.84,95.437,540.536,538.873,0.0
52869.0,STARLINK-4266,PAYLOAD,2023-08-05 22:31:20,15.0884701,0.0001082,53.2162,304.2482,73.7207,286.3904,0.00023349,3.431e-05,0.0,0 STARLINK-4266,1 52869U 22062AR  23217.93843483  .00003431  00000-0  23349-3 0  9994,2 52869  53.2162 304.2482 0001082  73.7207 286.3904 15.08847010 63624,6917.859,95.437,540.472,538.975,0.0
52869.0,STARLINK-4266,PAYLOAD,2023-08-06 09:39:03,15.08830864,0.0001369,53.2171,302.17,113.0637,247.05,-0.00012318,-2.247e-05,0.0,0 STARLINK-4266,1 52869U 22062AR  23218.40212113 -.00002247  00000-0 -12318-3 0  9997,2 52869  53.2171 302.1700 0001369 113.0637 247.0500 15.08830864 63699,6917.908,95.438,540.72,538.826,0.0
52869.0,STARLINK-4266,PAYLOAD,2023-08-07 17:26:46,15.08843275,0.0001025,53.2161,296.2242,97.6183,262.4926,8.8771e-05,1.125e-05,0.0,0 STARLINK-4266,1 52869U 22062AR  23219.72692260  .00001125  00000-0  88771-4 0  9997,2 52869  53.2161 296.2242 0001025  97.6183 262.4926 15.08843275 63899,6917.87,95.437,540.444,539.026,0.0
52869.0,STARLINK-4266,PAYLOAD,2023-08-07 22:12:55,15.08836556,0.0001168,53.2168,295.3319,100.022,260.0904,8.2391e-05,1.024e-05,0.0,0 STARLINK-4266,1 52869U 22062AR  23219.92564696  .00001024  00000-0  82391-4 0  9990,2 52869  53.2168 295.3319 0001168 100.0220 260.0904 15.08836556 63928,6917.891,95.438,540.564,538.948,0.0
52869.0,STARLINK-4266,PAYLOAD,2023-08-08 17:17:32,15.0885223,9.62e-05,53.2157,291.762,89.4315,270.6787,0.00032384,4.872e-05,0.0,0 STARLINK-4266,1 52869U 22062AR  23220.72051988  .00004872  00000-0  32384-3 0  9995,2 52869  53.2157 291.7620 0000962  89.4315 270.6787 15.08852230 64044,6917.843,95.437,540.374,539.043,0.0
52869.0,STARLINK-4266,PAYLOAD,2023-08-09 21:54:29,15.08842748,9.59e-05,53.2165,286.4075,93.7893,266.3209,3.9155e-05,3.36e-06,0.0,0 STARLINK-4266,1 52869U 22062AR  23221.91283953  .00000336  00000-0  39155-4 0  9991,2 52869  53.2165 286.4075 0000959  93.7893 266.3209 15.08842748 64227,6917.872,95.437,540.4,539.074,0.0
52869.0,STARLINK-4266,PAYLOAD,2023-08-10 10:37:34,15.08836624,0.0001542,53.2173,284.0281,97.4346,262.6821,-7.9714e-05,-1.556e-05,0.0,0 STARLINK-4266,1 52869U 22062AR  23222.44276504 -.00001556  00000-0 -79714-4 0  9996,2 52869  53.2173 284.0281 0001542  97.4346 262.6821 15.08836624 64306,6917.891,95.438,540.822,538.689,0.0
